[{"OBJECT_NAME":"STARLINK-2367","OBJECT_ID":"2021-021AZ","EPOCH":"2026-03-10T00:00:02.999808","MEAN_MOTION":15.26413588,"ECCENTRICITY":0.00010158,"INCLINATION":53.1415,"RA_OF_ASC_NODE":279.3039,"ARG_OF_PERICENTER":61.5725,"MEAN_ANOMALY":286.6174,"EPHEMERIS_TYPE":0,"CLASSIFICATION_TYPE":"U","NORAD_CAT_ID":47907,"ELEMENT_SET_NO":999,"REV_AT_EPOCH":579,"BSTAR":0.036483636,"MEAN_MOTION_DOT":0.01050812,"MEAN_MOTION_DDOT":0},{"OBJECT_NAME":"NUSAT-49 (KLARA DAN VON NEUMANN)","OBJECT_ID":"2024-149AJ","EPOCH":"2026-03-09T19:09:16.004160","MEAN_MOTION":15.30828857,"ECCENTRICITY":0.00011321,"INCLINATION":97.3807,"RA_OF_ASC_NODE":150.738,"ARG_OF_PERICENTER":286.7761,"MEAN_ANOMALY":73.3356,"EPHEMERIS_TYPE":0,"CLASSIFICATION_TYPE":"U","NORAD_CAT_ID":60500,"ELEMENT_SET_NO":999,"REV_AT_EPOCH":8693,"BSTAR":0.00043568345,"MEAN_MOTION_DOT":0.00012912,"MEAN_MOTION_DDOT":0}]
